ONEWEB-0012             
1 44057U 19010A   25297.66260338 -.00000001  00000+0 -36092-4 0  9996
2 44057  87.8973 275.7128 0001458  85.7172 274.4125 13.16594919320574
ONEWEB-0010             
1 44058U 19010B   25297.68793628  .00000077  00000+0  16876-3 0  9990
2 44058  87.8981 275.6929 0002153  95.4941 264.6436 13.16594534320622
ONEWEB-0008             
1 44059U 19010C   25297.86524678  .00000110  00000+0  25424-3 0  9995
2 44059  87.8984 275.6541 0001928  80.4867 279.6482 13.16596402320764
ONEWEB-0007             
1 44060U 19010D   25297.78950877  .00000073  00000+0  15880-3 0  9995
2 44060  87.8964 306.2066 0001819 101.8784 258.2550 13.15548080320422
ONEWEB-0006             
1 44061U 19010E   25297.79346516  .00000100  00000+0  23028-3 0  9990
2 44061  87.8972 306.1490 0001936  99.3038 260.8311 13.15548205320473
ONEWEB-0011             
1 44062U 19010F   25297.76176439 -.00000039  00000+0 -13751-3 0  9998
2 44062  87.8964 306.1664 0002064  90.0513 270.0854 13.15548797320467
ONEWEB-0013             
1 45131U 20008A   25297.82282750  .00000659  00000+0  18776-2 0  9993
2 45131  87.8468 100.3570 0000577  91.7477 268.3715 13.09438448275265
ONEWEB-0017             
1 45132U 20008B   25297.81861997 -.00000632  00000+0 -18458-2 0  9999
2 45132  87.8766  83.1960 0001815  99.3737 260.7596 13.10371917277126
ONEWEB-0020             
1 45133U 20008C   25297.78875832  .00000455  00000+0  12678-2 0  9998
2 45133  87.8771  83.1860 0001656  88.7410 271.3907 13.10370296277511
ONEWEB-0021             
1 45134U 20008D   25297.80369536 -.00000055  00000+0 -19454-3 0  9999
2 45134  87.8765  83.2163 0001526  97.7371 262.3930 13.10371296277825
ONEWEB-0023             
1 45136U 20008F   25297.81445953 -.00000556  00000+0 -16296-2 0  9996
2 45136  87.8765  83.1962 0001435  86.8620 273.2671 13.10370296277257
ONEWEB-0024             
1 45137U 20008G   25297.78709686  .00000654  00000+0  18365-2 0  9995
2 45137  87.8785  83.1611 0001633  97.3725 262.7588 13.10370953277412
ONEWEB-0025             
1 45138U 20008H   25297.80451491  .00000369  00000+0  10198-2 0  9996
2 45138  87.8776  83.1659 0001205  99.0807 261.0457 13.10368270277742
ONEWEB-0026             
1 45139U 20008J   25297.78302067 -.00000510  00000+0 -14742-2 0  9997
2 45139  87.8838  67.9429 0001754  97.9020 262.2307 13.11418635280259
ONEWEB-0028             
1 45140U 20008K   25297.81610034  .00000567  00000+0  15649-2 0  9996
2 45140  87.8832  67.9544 0000962 105.9571 254.1663 13.11416902277777
ONEWEB-0032             
1 45141U 20008L   25297.82027640 -.00000610  00000+0 -17842-2 0  9991
2 45141  87.8765  83.1951 0001392  95.2857 264.8429 13.10372570277477
ONEWEB-0033             
1 45142U 20008M   25297.79539617  .00000310  00000+0  85074-3 0  9998
2 45142  87.8765  83.2128 0001748  98.4580 261.6746 13.10368528277383
