[{"OBJECT_NAME":"ONEWEB-0012","OBJECT_ID":"2019-010A","EPOCH":"2025-10-24T15:54:08.932032","MEAN_MOTION":13.16594919,"ECCENTRICITY":0.0001458,"INCLINATION":87.8973,"RA_OF_ASC_NODE":275.7128,"ARG_OF_PERICENTER":85.7172,"MEAN_ANOMALY":274.4125,"EPHEMERIS_TYPE":0,"CLASSIFICATION_TYPE":"U","NORAD_CAT_ID":44057,"ELEMENT_SET_NO":999,"REV_AT_EPOCH":32057,"BSTAR":-3.6092e-5,"MEAN_MOTION_DOT":-1.0e-8,"MEAN_MOTION_DDOT":0},{"OBJECT_NAME":"ONEWEB-0010","OBJECT_ID":"2019-010B","EPOCH":"2025-10-24T16:30:37.694592","MEAN_MOTION":13.16594534,"ECCENTRICITY":0.0002153,"INCLINATION":87.8981,"RA_OF_ASC_NODE":275.6929,"ARG_OF_PERICENTER":95.4941,"MEAN_ANOMALY":264.6436,"EPHEMERIS_TYPE":0,"CLASSIFICATION_TYPE":"U","NORAD_CAT_ID":44058,"ELEMENT_SET_NO":999,"REV_AT_EPOCH":32062,"BSTAR":0.00016876,"MEAN_MOTION_DOT":7.7e-7,"MEAN_MOTION_DDOT":0},{"OBJECT_NAME":"ONEWEB-0008","OBJECT_ID":"2019-010C","EPOCH":"2025-10-24T20:45:57.321792","MEAN_MOTION":13.16596402,"ECCENTRICITY":0.0001928,"INCLINATION":87.8984,"RA_OF_ASC_NODE":275.6541,"ARG_OF_PERICENTER":80.4867,"MEAN_ANOMALY":279.6482,"EPHEMERIS_TYPE":0,"CLASSIFICATION_TYPE":"U","NORAD_CAT_ID":44059,"ELEMENT_SET_NO":999,"REV_AT_EPOCH":32076,"BSTAR":0.00025424,"MEAN_MOTION_DOT":1.1e-6,"MEAN_MOTION_DDOT":0},{"OBJECT_NAME":"ONEWEB-0007","OBJECT_ID":"2019-010D","EPOCH":"2025-10-24T18:56:53.557728","MEAN_MOTION":13.1554808,"ECCENTRICITY":0.0001819,"INCLINATION":87.8964,"RA_OF_ASC_NODE":306.2066,"ARG_OF_PERICENTER":101.8784,"MEAN_ANOMALY":258.255,"EPHEMERIS_TYPE":0,"CLASSIFICATION_TYPE":"U","NORAD_CAT_ID":44060,"ELEMENT_SET_NO":999,"REV_AT_EPOCH":32042,"BSTAR":0.0001588,"MEAN_MOTION_DOT":7.3e-7,"MEAN_MOTION_DDOT":0},{"OBJECT_NAME":"ONEWEB-0006","OBJECT_ID":"2019-010E","EPOCH":"2025-10-24T19:02:35.389824","MEAN_MOTION":13.15548205,"ECCENTRICITY":0.0001936,"INCLINATION":87.8972,"RA_OF_ASC_NODE":306.149,"ARG_OF_PERICENTER":99.3038,"MEAN_ANOMALY":260.8311,"EPHEMERIS_TYPE":0,"CLASSIFICATION_TYPE":"U","NORAD_CAT_ID":44061,"ELEMENT_SET_NO":999,"REV_AT_EPOCH":32047,"BSTAR":0.00023028,"MEAN_MOTION_DOT":1.0e-6,"MEAN_MOTION_DDOT":0},{"OBJECT_NAME":"ONEWEB-0011","OBJECT_ID":"2019-010F","EPOCH":"2025-10-24T18:16:56.443296","MEAN_MOTION":13.15548797,"ECCENTRICITY":0.0002064,"INCLINATION":87.8964,"RA_OF_ASC_NODE":306.1664,"ARG_OF_PERICENTER":90.0513,"MEAN_ANOMALY":270.0854,"EPHEMERIS_TYPE":0,"CLASSIFICATION_TYPE":"U","NORAD_CAT_ID":44062,"ELEMENT_SET_NO":999,"REV_AT_EPOCH":32046,"BSTAR":-0.00013751,"MEAN_MOTION_DOT":-3.9e-7,"MEAN_MOTION_DDOT":0},{"OBJECT_NAME":"ONEWEB-0013","OBJECT_ID":"2020-008A","EPOCH":"2025-10-24T19:44:52.296000","MEAN_MOTION":13.09438448,"ECCENTRICITY":5.77e-5,"INCLINATION":87.8468,"RA_OF_ASC_NODE":100.357,"ARG_OF_PERICENTER":91.7477,"MEAN_ANOMALY":268.3715,"EPHEMERIS_TYPE":0,"CLASSIFICATION_TYPE":"U","NORAD_CAT_ID":45131,"ELEMENT_SET_NO":999,"REV_AT_EPOCH":27526,"BSTAR":0.0018776,"MEAN_MOTION_DOT":6.59e-6,"MEAN_MOTION_DDOT":0},{"OBJECT_NAME":"ONEWEB-0017","OBJECT_ID":"2020-008B","EPOCH":"2025-10-24T19:38:48.765408","MEAN_MOTION":13.10371917,"ECCENTRICITY":0.0001815,"INCLINATION":87.8766,"RA_OF_ASC_NODE":83.196,"ARG_OF_PERICENTER":99.3737,"MEAN_ANOMALY":260.7596,"EPHEMERIS_TYPE":0,"CLASSIFICATION_TYPE":"U","NORAD_CAT_ID":45132,"ELEMENT_SET_NO":999,"REV_AT_EPOCH":27712,"BSTAR":-0.0018458,"MEAN_MOTION_DOT":-6.32e-6,"MEAN_MOTION_DDOT":0},{"OBJECT_NAME":"ONEWEB-0020","OBJECT_ID":"2020-008C","EPOCH":"2025-10-24T18:55:48.718848","MEAN_MOTION":13.10370296,"ECCENTRICITY":0.0001656,"INCLINATION":87.8771,"RA_OF_ASC_NODE":83.186,"ARG_OF_PERICENTER":88.741,"MEAN_ANOMALY":271.3907,"EPHEMERIS_TYPE":0,"CLASSIFICATION_TYPE":"U","NORAD_CAT_ID":45133,"ELEMENT_SET_NO":999,"REV_AT_EPOCH":27751,"BSTAR":0.0012678,"MEAN_MOTION_DOT":4.55e-6,"MEAN_MOTION_DDOT":0},{"OBJECT_NAME":"ONEWEB-0021","OBJECT_ID":"2020-008D","EPOCH":"2025-10-24T19:17:19.279104","MEAN_MOTION":13.10371296,"ECCENTRICITY":0.0001526,"INCLINATION":87.8765,"RA_OF_ASC_NODE":83.2163,"ARG_OF_PERICENTER":97.7371,"MEAN_ANOMALY":262.393,"EPHEMERIS_TYPE":0,"CLASSIFICATION_TYPE":"U","NORAD_CAT_ID":45134,"ELEMENT_SET_NO":999,"REV_AT_EPOCH":27782,"BSTAR":-0.00019454,"MEAN_MOTION_DOT":-5.5e-7,"MEAN_MOTION_DDOT":0},{"OBJECT_NAME":"ONEWEB-0023","OBJECT_ID":"2020-008F","EPOCH":"2025-10-24T19:32:49.303392","MEAN_MOTION":13.10370296,"ECCENTRICITY":0.0001435,"INCLINATION":87.8765,"RA_OF_ASC_NODE":83.1962,"ARG_OF_PERICENTER":86.862,"MEAN_ANOMALY":273.2671,"EPHEMERIS_TYPE":0,"CLASSIFICATION_TYPE":"U","NORAD_CAT_ID":45136,"ELEMENT_SET_NO":999,"REV_AT_EPOCH":27725,"BSTAR":-0.0016296,"MEAN_MOTION_DOT":-5.56e-6,"MEAN_MOTION_DDOT":0},{"OBJECT_NAME":"ONEWEB-0024","OBJECT_ID":"2020-008G","EPOCH":"2025-10-24T18:53:25.168704","MEAN_MOTION":13.10370953,"ECCENTRICITY":0.0001633,"INCLINATION":87.8785,"RA_OF_ASC_NODE":83.1611,"ARG_OF_PERICENTER":97.3725,"MEAN_ANOMALY":262.7588,"EPHEMERIS_TYPE":0,"CLASSIFICATION_TYPE":"U","NORAD_CAT_ID":45137,"ELEMENT_SET_NO":999,"REV_AT_EPOCH":27741,"BSTAR":0.0018365,"MEAN_MOTION_DOT":6.54e-6,"MEAN_MOTION_DDOT":0},{"OBJECT_NAME":"ONEWEB-0025","OBJECT_ID":"2020-008H","EPOCH":"2025-10-24T19:18:30.088224","MEAN_MOTION":13.1036827,"ECCENTRICITY":0.0001205,"INCLINATION":87.8776,"RA_OF_ASC_NODE":83.1659,"ARG_OF_PERICENTER":99.0807,"MEAN_ANOMALY":261.0457,"EPHEMERIS_TYPE":0,"CLASSIFICATION_TYPE":"U","NORAD_CAT_ID":45138,"ELEMENT_SET_NO":999,"REV_AT_EPOCH":27774,"BSTAR":0.0010198,"MEAN_MOTION_DOT":3.69e-6,"MEAN_MOTION_DDOT":0},{"OBJECT_NAME":"ONEWEB-0026","OBJECT_ID":"2020-008J","EPOCH":"2025-10-24T18:47:32.985888","MEAN_MOTION":13.11418635,"ECCENTRICITY":0.0001754,"INCLINATION":87.8838,"RA_OF_ASC_NODE":67.9429,"ARG_OF_PERICENTER":97.902,"MEAN_ANOMALY":262.2307,"EPHEMERIS_TYPE":0,"CLASSIFICATION_TYPE":"U","NORAD_CAT_ID":45139,"ELEMENT_SET_NO":999,"REV_AT_EPOCH":28025,"BSTAR":-0.0014742,"MEAN_MOTION_DOT":-5.1e-6,"MEAN_MOTION_DDOT":0},{"OBJECT_NAME":"ONEWEB-0028","OBJECT_ID":"2020-008K","EPOCH":"2025-10-24T19:35:11.069376","MEAN_MOTION":13.11416902,"ECCENTRICITY":9.62e-5,"INCLINATION":87.8832,"RA_OF_ASC_NODE":67.9544,"ARG_OF_PERICENTER":105.9571,"MEAN_ANOMALY":254.1663,"EPHEMERIS_TYPE":0,"CLASSIFICATION_TYPE":"U","NORAD_CAT_ID":45140,"ELEMENT_SET_NO":999,"REV_AT_EPOCH":27777,"BSTAR":0.0015649,"MEAN_MOTION_DOT":5.67e-6,"MEAN_MOTION_DDOT":0},{"OBJECT_NAME":"ONEWEB-0032","OBJECT_ID":"2020-008L","EPOCH":"2025-10-24T19:41:11.880960","MEAN_MOTION":13.1037257,"ECCENTRICITY":0.0001392,"INCLINATION":87.8765,"RA_OF_ASC_NODE":83.1951,"ARG_OF_PERICENTER":95.2857,"MEAN_ANOMALY":264.8429,"EPHEMERIS_TYPE":0,"CLASSIFICATION_TYPE":"U","NORAD_CAT_ID":45141,"ELEMENT_SET_NO":999,"REV_AT_EPOCH":27747,"BSTAR":-0.0017842,"MEAN_MOTION_DOT":-6.1e-6,"MEAN_MOTION_DDOT":0},{"OBJECT_NAME":"ONEWEB-0033","OBJECT_ID":"2020-008M","EPOCH":"2025-10-24T19:05:22.229088","MEAN_MOTION":13.10368528,"ECCENTRICITY":0.0001748,"INCLINATION":87.8765,"RA_OF_ASC_NODE":83.2128,"ARG_OF_PERICENTER":98.458,"MEAN_ANOMALY":261.6746,"EPHEMERIS_TYPE":0,"CLASSIFICATION_TYPE":"U","NORAD_CAT_ID":45142,"ELEMENT_SET_NO":999,"REV_AT_EPOCH":27738,"BSTAR":0.00085074,"MEAN_MOTION_DOT":3.1e-6,"MEAN_MOTION_DDOT":0}]
